start=new Date('2023-05-02T00:00:00.000Z').valueOf();
sats=[{"REV_AT_EPOCH":"2956","DECAY_DATE":null,"RCS_SIZE":"LARGE","BSTAR":"0.00012722000000","ARG_OF_PERICENTER":"88.9681","REF_FRAME":"TEME","MEAN_MOTION":"15.08843789","COUNTRY_CODE":"US","MEAN_MOTION_DDOT":"0.0000000000000","MEAN_ELEMENT_THEORY":"SGP4","OBJECT_NAME":"STARLINK-5198","ELEMENT_SET_NO":"999","TLE_LINE2":"2 54099  53.2162 334.9690 0000837  88.9681 271.1407 15.08843789 29567","SITE":"AFETR","LAUNCH_DATE":"2022-10-20","TIME_SYSTEM":"UTC","EPHEMERIS_TYPE":"0","OBJECT_ID":"2022-136BA","FILE":"3898518","SEMIMAJOR_AXIS":"6917.869","MEAN_MOTION_DOT":"0.00001738","INCLINATION":"53.2162","TLE_LINE1":"1 54099U 22136BA  23121.89396580  .00001738  00000-0  12722-3 0  9994","RA_OF_ASC_NODE":"334.9690","PERIOD":"95.437","CLASSIFICATION_TYPE":"U","GP_ID":"231056790","ECCENTRICITY":"0.00008370","CENTER_NAME":"EARTH","NORAD_CAT_ID":"54099","OBJECT_TYPE":"PAYLOAD","MEAN_ANOMALY":"271.1407","PERIAPSIS":"539.155","APOAPSIS":"540.313","EPOCH":"2023-05-01T21:27:18.645120"},{"INCLINATION":"53.2162","MEAN_MOTION_DOT":"0.00003265","FILE":"3898503","SEMIMAJOR_AXIS":"6917.868","OBJECT_ID":"2022-136BB","EPHEMERIS_TYPE":"0","PERIOD":"95.437","RA_OF_ASC_NODE":"334.7635","TLE_LINE1":"1 54100U 22136BB  23121.97494614  .00003265  00000-0  22311-3 0  9995","CENTER_NAME":"EARTH","GP_ID":"231030327","ECCENTRICITY":"0.00010970","CLASSIFICATION_TYPE":"U","EPOCH":"2023-05-01T23:23:55.346496","APOAPSIS":"540.492","MEAN_ANOMALY":"278.5533","OBJECT_TYPE":"PAYLOAD","NORAD_CAT_ID":"54100","PERIAPSIS":"538.974","DECAY_DATE":null,"RCS_SIZE":"LARGE","ARG_OF_PERICENTER":"81.5584","BSTAR":"0.00022311000000","REV_AT_EPOCH":"3004","MEAN_MOTION_DDOT":"0.0000000000000","COUNTRY_CODE":"US","REF_FRAME":"TEME","MEAN_MOTION":"15.08844074","MEAN_ELEMENT_THEORY":"SGP4","OBJECT_NAME":"STARLINK-5185","TIME_SYSTEM":"UTC","SITE":"AFETR","LAUNCH_DATE":"2022-10-20","TLE_LINE2":"2 54100  53.2162 334.7635 0001097  81.5584 278.5533 15.08844074 30041","ELEMENT_SET_NO":"999"},{"TLE_LINE1":"1 54101U 22136BC  23121.84296784  .00000087  00000-0  23569-4 0  9996","PERIOD":"95.437","RA_OF_ASC_NODE":"320.3984","EPHEMERIS_TYPE":"0","INCLINATION":"53.2179","OBJECT_ID":"2022-136BC","FILE":"3898518","SEMIMAJOR_AXIS":"6917.877","MEAN_MOTION_DOT":"0.00000087","OBJECT_TYPE":"PAYLOAD","MEAN_ANOMALY":"256.9749","NORAD_CAT_ID":"54101","PERIAPSIS":"539.079","EPOCH":"2023-05-01T20:13:52.421376","APOAPSIS":"540.405","CLASSIFICATION_TYPE":"U","CENTER_NAME":"EARTH","GP_ID":"231055288","ECCENTRICITY":"0.00009580","REF_FRAME":"TEME","MEAN_MOTION":"15.08841058","MEAN_MOTION_DDOT":"0.0000000000000","COUNTRY_CODE":"US","REV_AT_EPOCH":"2976","DECAY_DATE":null,"ARG_OF_PERICENTER":"103.1350","RCS_SIZE":"LARGE","BSTAR":"0.00002356900000","TLE_LINE2":"2 54101  53.2179 320.3984 0000958 103.1350 256.9749 15.08841058 29760","ELEMENT_SET_NO":"999","TIME_SYSTEM":"UTC","SITE":"AFETR","LAUNCH_DATE":"2022-10-20","MEAN_ELEMENT_THEORY":"SGP4","OBJECT_NAME":"STARLINK-5204"},{"REF_FRAME":"TEME","MEAN_MOTION":"15.08841289","COUNTRY_CODE":"US","MEAN_MOTION_DDOT":"0.0000000000000","REV_AT_EPOCH":"2956","DECAY_DATE":null,"RCS_SIZE":"LARGE","ARG_OF_PERICENTER":"90.7922","BSTAR":"0.00014265000000","ELEMENT_SET_NO":"999","TLE_LINE2":"2 54102  53.2171 334.9926 0001188  90.7922 269.3206 15.08841289 29562","SITE":"AFETR","LAUNCH_DATE":"2022-10-20","TIME_SYSTEM":"UTC","MEAN_ELEMENT_THEORY":"SGP4","OBJECT_NAME":"STARLINK-5179","TLE_LINE1":"1 54102U 22136BD  23121.89765205  .00001983  00000-0  14265-3 0  9999","RA_OF_ASC_NODE":"334.9926","PERIOD":"95.437","EPHEMERIS_TYPE":"0","OBJECT_ID":"2022-136BD","FILE":"3898518","SEMIMAJOR_AXIS":"6917.876","MEAN_MOTION_DOT":"0.00001983","INCLINATION":"53.2171","OBJECT_TYPE":"PAYLOAD","MEAN_ANOMALY":"269.3206","NORAD_CAT_ID":"54102","PERIAPSIS":"538.920","APOAPSIS":"540.563","EPOCH":"2023-05-01T21:32:37.137120","CLASSIFICATION_TYPE":"U","GP_ID":"231056039","ECCENTRICITY":"0.00011880","CENTER_NAME":"EARTH"},{"MEAN_ELEMENT_THEORY":"SGP4","OBJECT_NAME":"STARLINK-5200","ELEMENT_SET_NO":"999","TLE_LINE2":"2 54103  53.2167 315.9011 0000832 102.9538 257.1547 15.08843222 29827","SITE":"AFETR","LAUNCH_DATE":"2022-10-20","TIME_SYSTEM":"UTC","REV_AT_EPOCH":"2982","DECAY_DATE":null,"RCS_SIZE":"LARGE","BSTAR":"0.00008786300000","ARG_OF_PERICENTER":"102.9538","REF_FRAME":"TEME","MEAN_MOTION":"15.08843222","COUNTRY_CODE":"US","MEAN_MOTION_DDOT":"0.0000000000000","CLASSIFICATION_TYPE":"U","GP_ID":"231056290","ECCENTRICITY":"0.00008320","CENTER_NAME":"EARTH","MEAN_ANOMALY":"257.1547","OBJECT_TYPE":"PAYLOAD","NORAD_CAT_ID":"54103","PERIAPSIS":"539.160","APOAPSIS":"540.311","EPOCH":"2023-05-01T19:24:15.373728","EPHEMERIS_TYPE":"0","FILE":"3898518","SEMIMAJOR_AXIS":"6917.871","OBJECT_ID":"2022-136BE","MEAN_MOTION_DOT":"0.00001111","INCLINATION":"53.2167","TLE_LINE1":"1 54103U 22136BE  23121.80851127  .00001111  00000-0  87863-4 0  9998","RA_OF_ASC_NODE":"315.9011","PERIOD":"95.437"},{"ECCENTRICITY":"0.00011390","GP_ID":"231057032","CENTER_NAME":"EARTH","CLASSIFICATION_TYPE":"U","APOAPSIS":"540.421","EPOCH":"2023-05-01T18:51:43.300512","PERIAPSIS":"538.845","OBJECT_TYPE":"PAYLOAD","MEAN_ANOMALY":"243.7020","NORAD_CAT_ID":"54104","SEMIMAJOR_AXIS":"6917.768","FILE":"3898518","OBJECT_ID":"2022-136BF","MEAN_MOTION_DOT":"0.00007422","INCLINATION":"53.2188","EPHEMERIS_TYPE":"0","RA_OF_ASC_NODE":"300.7675","PERIOD":"95.435","TLE_LINE1":"1 54104U 22136BF  23121.78591783  .00007422  00000-0  48341-3 0  9993","OBJECT_NAME":"STARLINK-5203","MEAN_ELEMENT_THEORY":"SGP4","SITE":"AFETR","LAUNCH_DATE":"2022-10-20","TIME_SYSTEM":"UTC","ELEMENT_SET_NO":"999","TLE_LINE2":"2 54104  53.2188 300.7675 0001139 116.4089 243.7020 15.08876743 30037","RCS_SIZE":"LARGE","DECAY_DATE":null,"BSTAR":"0.00048341000000","ARG_OF_PERICENTER":"116.4089","REV_AT_EPOCH":"3003","COUNTRY_CODE":"US","MEAN_MOTION_DDOT":"0.0000000000000","MEAN_MOTION":"15.08876743","REF_FRAME":"TEME"},{"OBJECT_TYPE":"PAYLOAD","NORAD_CAT_ID":"54157","MEAN_ANOMALY":"282.3787","PERIAPSIS":"538.899","EPOCH":"2023-05-01T22:04:29.651232","APOAPSIS":"540.574","CLASSIFICATION_TYPE":"U","CENTER_NAME":"EARTH","GP_ID":"231055294","ECCENTRICITY":"0.00012110","TLE_LINE1":"1 54157U 22141A   23121.91978763  .00001555  00000-0  11574-3 0  9998","PERIOD":"95.437","RA_OF_ASC_NODE":"15.3513","EPHEMERIS_TYPE":"0","INCLINATION":"53.2175","SEMIMAJOR_AXIS":"6917.872","FILE":"3898518","OBJECT_ID":"2022-141A","MEAN_MOTION_DOT":"0.00001555","TLE_LINE2":"2 54157  53.2175  15.3513 0001211  77.7341 282.3787 15.08842908 28292","ELEMENT_SET_NO":"999","TIME_SYSTEM":"UTC","LAUNCH_DATE":"2022-10-28","SITE":"AFWTR","MEAN_ELEMENT_THEORY":"SGP4","OBJECT_NAME":"STARLINK-5290","REF_FRAME":"TEME","MEAN_MOTION":"15.08842908","MEAN_MOTION_DDOT":"0.0000000000000","COUNTRY_CODE":"US","REV_AT_EPOCH":"2829","DECAY_DATE":null,"ARG_OF_PERICENTER":"77.7341","RCS_SIZE":"LARGE","BSTAR":"0.00011574000000"},{"SEMIMAJOR_AXIS":"6917.848","FILE":"3898518","OBJECT_ID":"2022-141B","MEAN_MOTION_DOT":"0.00009283","INCLINATION":"53.2184","EPHEMERIS_TYPE":"0","RA_OF_ASC_NODE":"15.3993","PERIOD":"95.437","TLE_LINE1":"1 54158U 22141B   23121.92715821  .00009283  00000-0  60042-3 0  9994","GP_ID":"231056045","ECCENTRICITY":"0.00013870","CENTER_NAME":"EARTH","CLASSIFICATION_TYPE":"U","APOAPSIS":"540.672","EPOCH":"2023-05-01T22:15:06.469344","OBJECT_TYPE":"PAYLOAD","NORAD_CAT_ID":"54158","MEAN_ANOMALY":"270.6804","PERIAPSIS":"538.753","RCS_SIZE":"LARGE","DECAY_DATE":null,"BSTAR":"0.00060042000000","ARG_OF_PERICENTER":"89.4347","REV_AT_EPOCH":"2829","COUNTRY_CODE":"US","MEAN_MOTION_DDOT":"0.0000000000000","REF_FRAME":"TEME","MEAN_MOTION":"15.08850674","MEAN_ELEMENT_THEORY":"SGP4","OBJECT_NAME":"STARLINK-5297","SITE":"AFWTR","LAUNCH_DATE":"2022-10-28","TIME_SYSTEM":"UTC","ELEMENT_SET_NO":"999","TLE_LINE2":"2 54158  53.2184  15.3993 0001387  89.4347 270.6804 15.08850674 28294"},{"PERIAPSIS":"543.827","OBJECT_TYPE":"PAYLOAD","NORAD_CAT_ID":"54159","MEAN_ANOMALY":"263.0523","EPOCH":"2023-05-01T21:45:34.906464","APOAPSIS":"545.609","CLASSIFICATION_TYPE":"U","CENTER_NAME":"EARTH","ECCENTRICITY":"0.00012870","GP_ID":"231056296","TLE_LINE1":"1 54159U 22141C   23121.90665401  .00005473  00000-0  37780-3 0  9991","PERIOD":"95.540","RA_OF_ASC_NODE":"15.2811","EPHEMERIS_TYPE":"0","INCLINATION":"53.2181","FILE":"3898518","SEMIMAJOR_AXIS":"6922.853","MEAN_MOTION_DOT":"0.00005473","OBJECT_ID":"2022-141C","TLE_LINE2":"2 54159  53.2181  15.2811 0001287  97.0614 263.0523 15.07214479 28291","ELEMENT_SET_NO":"999","TIME_SYSTEM":"UTC","LAUNCH_DATE":"2022-10-28","SITE":"AFWTR","OBJECT_NAME":"STARLINK-5294","MEAN_ELEMENT_THEORY":"SGP4","MEAN_MOTION":"15.07214479","REF_FRAME":"TEME","MEAN_MOTION_DDOT":"0.0000000000000","COUNTRY_CODE":"US","REV_AT_EPOCH":"2829","DECAY_DATE":null,"RCS_SIZE":"LARGE","BSTAR":"0.00037780000000","ARG_OF_PERICENTER":"97.0614"},{"EPOCH":"2023-05-01T21:41:17.750688","APOAPSIS":"540.449","OBJECT_TYPE":"PAYLOAD","NORAD_CAT_ID":"54160","MEAN_ANOMALY":"276.8723","PERIAPSIS":"539.020","CENTER_NAME":"EARTH","GP_ID":"231057038","ECCENTRICITY":"0.00010330","CLASSIFICATION_TYPE":"U","PERIOD":"95.437","RA_OF_ASC_NODE":"330.3338","TLE_LINE1":"1 54160U 22141D   23121.90367767 -.00001036  00000-0 -46994-4 0  9998","INCLINATION":"53.2188","OBJECT_ID":"2022-141D","FILE":"3898518","SEMIMAJOR_AXIS":"6917.869","MEAN_MOTION_DOT":"-0.00001036","EPHEMERIS_TYPE":"0","TIME_SYSTEM":"UTC","LAUNCH_DATE":"2022-10-28","SITE":"AFWTR","TLE_LINE2":"2 54160  53.2188 330.3338 0001033  83.2387 276.8723 15.08843592 28927","ELEMENT_SET_NO":"999","MEAN_ELEMENT_THEORY":"SGP4","OBJECT_NAME":"STARLINK-5233","MEAN_MOTION_DDOT":"0.0000000000000","COUNTRY_CODE":"US","REF_FRAME":"TEME","MEAN_MOTION":"15.08843592","DECAY_DATE":null,"BSTAR":"-0.00004699400000","RCS_SIZE":"LARGE","ARG_OF_PERICENTER":"83.2387","REV_AT_EPOCH":"2892"}];
